ONEWEB-0653             
1 55815U 23029V   24034.68392738 -.00000082  00000+0 -25466-3 0  9996
2 55815  87.8955 101.7662 0002026 111.8148 248.3198 13.14501466 45820
ONEWEB-0654             
1 55816U 23029W   24034.67918002 -.00000161  00000+0 -46804-3 0  9991
2 55816  87.8954 101.7808 0001664 118.6584 241.4713 13.14501737 45848
ONEWEB-0656             
1 55817U 23029X   24034.66758166 -.00000369  00000+0 -93961-3 0  9990
2 55817  87.9157  86.4857 0001208 102.4061 257.7208 13.20770609 47038
ONEWEB-0658             
1 55819U 23029Z   24034.75679874 -.00000042  00000+0 -13689-3 0  9997
2 55819  87.9194 116.9919 0002359  90.6003 269.5400 13.19725466 44908
ONEWEB-0660             
1 55820U 23029AA  24034.73309558 -.00000071  00000+0 -22580-3 0  9998
2 55820  87.8956 101.7460 0002418 102.3760 257.7641 13.14501147 45837
